0 COSMOS 839 DEB
1 10621U 76067AV  13281.23009503 -.00000094  00000-0 -15594-3 0  2820
2 10621 066.0266 167.7945 0672080 328.6887 109.5145 12.30832665673672
0 COSMOS 839 DEB
1 10621U 76067AV  13283.82740130 -.00000039  00000-0  58419-4 0  2838
2 10621 066.0263 162.8319 0672138 327.6267 098.1608 12.30832226673990
0 COSMOS 839 DEB
1 10621U 76067AV  13286.12720272  .00000010  00000-0  25301-3 0  2841
2 10621 066.0257 158.4375 0672164 326.6866 208.5641 12.30831914674278
0 COSMOS 839 DEB
1 10621U 76067AV  13288.13567372  .00000028  00000-0  32602-3 0  2856
2 10621 066.0253 154.5998 0672200 325.8648 108.0811 12.30832227674521
0 COSMOS 839 DEB
1 10621U 76067AV  13290.16795348 -.00000044  00000-0  39868-4 0  2860
2 10621 066.0250 150.7166 0672251 325.0318 113.0967 12.30832789674773
0 COSMOS 839 DEB
1 10621U 76067AV  13292.84839801 -.00000042  00000-0  49311-4 0  2873
2 10621 066.0250 145.5946 0672340 323.9329 110.1328 12.30832902675103
0 COSMOS 839 DEB
1 10621U 76067AV  13295.12445846 -.00000042  00000-0  48607-4 0  2887
2 10621 066.0250 141.2451 0672371 323.0024 115.3433 12.30832912675389
